CCSDS_OMM_VERS = 2.0
CREATION_DATE  = 
ORIGINATOR     = 

OBJECT_NAME    = SL-16 R/B
OBJECT_ID      = 1998-043G
CENTER_NAME    = EARTH
REF_FRAME      = TEME
TIME_SYSTEM    = UTC
MEAN_ELEMENT_THEORY = SGP/SGP4

EPOCH          = 2025-12-16T07:21:31.366656
MEAN_MOTION    = 14.26026556
ECCENTRICITY   = .00087981
INCLINATION    = 98.8130
RA_OF_ASC_NODE = 298.1447
ARG_OF_PERICENTER = 255.1557
MEAN_ANOMALY   = 104.8648

EPHEMERIS_TYPE = 0
CLASSIFICATION_TYPE = U
NORAD_CAT_ID   = 25400
ELEMENT_SET_NO = 999
REV_AT_EPOCH   = 42710
BSTAR          = .45856193E-4
MEAN_MOTION_DOT = .64E-6
MEAN_MOTION_DDOT = 0

CCSDS_OMM_VERS = 2.0
CREATION_DATE  = 
ORIGINATOR     = 

OBJECT_NAME    = SL-16 R/B
OBJECT_ID      = 1998-045B
CENTER_NAME    = EARTH
REF_FRAME      = TEME
TIME_SYSTEM    = UTC
MEAN_ELEMENT_THEORY = SGP/SGP4

EPOCH          = 2025-12-16T07:06:49.322880
MEAN_MOTION    = 14.16174536
ECCENTRICITY   = .00067256
INCLINATION    = 71.0115
RA_OF_ASC_NODE = 356.9470
ARG_OF_PERICENTER = 171.5761
MEAN_ANOMALY   = 188.5476

EPHEMERIS_TYPE = 0
CLASSIFICATION_TYPE = U
NORAD_CAT_ID   = 25407
ELEMENT_SET_NO = 999
REV_AT_EPOCH   = 41529
BSTAR          = -.11384719E-4
MEAN_MOTION_DOT = -.7E-6
MEAN_MOTION_DDOT = 0

CCSDS_OMM_VERS = 2.0
CREATION_DATE  = 
ORIGINATOR     = 

OBJECT_NAME    = ISS (ZARYA)
OBJECT_ID      = 1998-067A
CENTER_NAME    = EARTH
REF_FRAME      = TEME
TIME_SYSTEM    = UTC
MEAN_ELEMENT_THEORY = SGP/SGP4

EPOCH          = 2025-12-16T02:06:50.626944
MEAN_MOTION    = 15.49613604
ECCENTRICITY   = .00031739
INCLINATION    = 51.6306
RA_OF_ASC_NODE = 125.8981
ARG_OF_PERICENTER = 255.6781
MEAN_ANOMALY   = 104.3856

EPHEMERIS_TYPE = 0
CLASSIFICATION_TYPE = U
NORAD_CAT_ID   = 25544
ELEMENT_SET_NO = 999
REV_AT_EPOCH   = 54337
BSTAR          = .12170727E-3
MEAN_MOTION_DOT = .6404E-4
MEAN_MOTION_DDOT = 0

CCSDS_OMM_VERS = 2.0
CREATION_DATE  = 
ORIGINATOR     = 

OBJECT_NAME    = CZ-4B R/B
OBJECT_ID      = 1999-025C
CENTER_NAME    = EARTH
REF_FRAME      = TEME
TIME_SYSTEM    = UTC
MEAN_ELEMENT_THEORY = SGP/SGP4

EPOCH          = 2025-12-16T03:15:59.741568
MEAN_MOTION    = 14.18244445
ECCENTRICITY   = .00364228
INCLINATION    = 98.6765
RA_OF_ASC_NODE = 31.3401
ARG_OF_PERICENTER = 224.0122
MEAN_ANOMALY   = 199.9049

EPHEMERIS_TYPE = 0
CLASSIFICATION_TYPE = U
NORAD_CAT_ID   = 25732
ELEMENT_SET_NO = 999
REV_AT_EPOCH   = 37632
BSTAR          = .51218971E-4
MEAN_MOTION_DOT = .63E-6
MEAN_MOTION_DDOT = 0

CCSDS_OMM_VERS = 2.0
CREATION_DATE  = 
ORIGINATOR     = 

OBJECT_NAME    = OKEAN-O
OBJECT_ID      = 1999-039A
CENTER_NAME    = EARTH
REF_FRAME      = TEME
TIME_SYSTEM    = UTC
MEAN_ELEMENT_THEORY = SGP/SGP4

EPOCH          = 2025-12-16T04:04:16.023360
MEAN_MOTION    = 14.80167284
ECCENTRICITY   = .00008891
INCLINATION    = 97.9601
RA_OF_ASC_NODE = 45.8417
ARG_OF_PERICENTER = 105.7182
MEAN_ANOMALY   = 254.4128

EPHEMERIS_TYPE = 0
CLASSIFICATION_TYPE = U
NORAD_CAT_ID   = 25860
ELEMENT_SET_NO = 999
REV_AT_EPOCH   = 42203
BSTAR          = .10042345E-3
MEAN_MOTION_DOT = .71E-5
MEAN_MOTION_DDOT = 0

CCSDS_OMM_VERS = 2.0
CREATION_DATE  = 
ORIGINATOR     = 

OBJECT_NAME    = SL-16 R/B
OBJECT_ID      = 1999-039B
CENTER_NAME    = EARTH
REF_FRAME      = TEME
TIME_SYSTEM    = UTC
MEAN_ELEMENT_THEORY = SGP/SGP4

EPOCH          = 2025-12-16T03:52:26.707872
MEAN_MOTION    = 14.81591396
ECCENTRICITY   = .00151865
INCLINATION    = 98.0124
RA_OF_ASC_NODE = 44.3129
ARG_OF_PERICENTER = 163.7146
MEAN_ANOMALY   = 196.4557

EPHEMERIS_TYPE = 0
CLASSIFICATION_TYPE = U
NORAD_CAT_ID   = 25861
ELEMENT_SET_NO = 999
REV_AT_EPOCH   = 42449
BSTAR          = .78376073E-4
MEAN_MOTION_DOT = .563E-5
MEAN_MOTION_DDOT = 0

CCSDS_OMM_VERS = 2.0
CREATION_DATE  = 
ORIGINATOR     = 

OBJECT_NAME    = DELTA 2 R/B
OBJECT_ID      = 1999-041E
CENTER_NAME    = EARTH
REF_FRAME      = TEME
TIME_SYSTEM    = UTC
MEAN_ELEMENT_THEORY = SGP/SGP4

EPOCH          = 2025-12-16T04:24:00.703872
MEAN_MOTION    = 14.11410574
ECCENTRICITY   = .05046257
INCLINATION    = 51.7616
RA_OF_ASC_NODE = 274.6996
ARG_OF_PERICENTER = 101.9181
MEAN_ANOMALY   = 263.8769

EPHEMERIS_TYPE = 0
CLASSIFICATION_TYPE = U
NORAD_CAT_ID   = 25876
ELEMENT_SET_NO = 999
REV_AT_EPOCH   = 35123
BSTAR          = .22242402E-3
MEAN_MOTION_DOT = .1134E-4
MEAN_MOTION_DDOT = 0

CCSDS_OMM_VERS = 2.0
CREATION_DATE  = 
ORIGINATOR     = 

OBJECT_NAME    = HELIOS 1B
OBJECT_ID      = 1999-064A
CENTER_NAME    = EARTH
REF_FRAME      = TEME
TIME_SYSTEM    = UTC
MEAN_ELEMENT_THEORY = SGP/SGP4

EPOCH          = 2025-12-16T07:14:43.948320
MEAN_MOTION    = 14.87297674
ECCENTRICITY   = .00015405
INCLINATION    = 98.1758
RA_OF_ASC_NODE = 245.0731
ARG_OF_PERICENTER = 40.7734
MEAN_ANOMALY   = 319.3596

EPHEMERIS_TYPE = 0
CLASSIFICATION_TYPE = U
NORAD_CAT_ID   = 25977
ELEMENT_SET_NO = 999
REV_AT_EPOCH   = 67286
BSTAR          = .14846664E-3
MEAN_MOTION_DOT = .1281E-4
MEAN_MOTION_DDOT = 0

CCSDS_OMM_VERS = 2.0
CREATION_DATE  = 
ORIGINATOR     = 

OBJECT_NAME    = TERRA
OBJECT_ID      = 1999-068A
CENTER_NAME    = EARTH
REF_FRAME      = TEME
TIME_SYSTEM    = UTC
MEAN_ELEMENT_THEORY = SGP/SGP4

EPOCH          = 2025-12-16T07:08:50.257824
MEAN_MOTION    = 14.60906024
ECCENTRICITY   = .0003593
INCLINATION    = 97.9746
RA_OF_ASC_NODE = 41.8517
ARG_OF_PERICENTER = 87.5298
MEAN_ANOMALY   = 344.6664

EPHEMERIS_TYPE = 0
CLASSIFICATION_TYPE = U
NORAD_CAT_ID   = 25994
ELEMENT_SET_NO = 999
REV_AT_EPOCH   = 38290
BSTAR          = .10682686E-3
MEAN_MOTION_DOT = .478E-5
MEAN_MOTION_DDOT = 0

CCSDS_OMM_VERS = 2.0
CREATION_DATE  = 
ORIGINATOR     = 

OBJECT_NAME    = SL-16 R/B
OBJECT_ID      = 2000-006B
CENTER_NAME    = EARTH
REF_FRAME      = TEME
TIME_SYSTEM    = UTC
MEAN_ELEMENT_THEORY = SGP/SGP4

EPOCH          = 2025-12-16T05:16:05.121408
MEAN_MOTION    = 14.15809621
ECCENTRICITY   = .00185598
INCLINATION    = 71.0026
RA_OF_ASC_NODE = 273.3410
ARG_OF_PERICENTER = 303.9472
MEAN_ANOMALY   = 55.9886

EPHEMERIS_TYPE = 0
CLASSIFICATION_TYPE = U
NORAD_CAT_ID   = 26070
ELEMENT_SET_NO = 999
REV_AT_EPOCH   = 33674
BSTAR          = -.97565952E-4
MEAN_MOTION_DOT = -.24E-5
MEAN_MOTION_DDOT = 0

CCSDS_OMM_VERS = 2.0
CREATION_DATE  = 
ORIGINATOR     = 

OBJECT_NAME    = TITAN 4B R/B
OBJECT_ID      = 2000-047B
CENTER_NAME    = EARTH
REF_FRAME      = TEME
TIME_SYSTEM    = UTC
MEAN_ELEMENT_THEORY = SGP/SGP4

EPOCH          = 2025-12-16T06:09:20.430144
MEAN_MOTION    = 15.08808381
ECCENTRICITY   = .00386897
INCLINATION    = 67.9897
RA_OF_ASC_NODE = 274.9779
ARG_OF_PERICENTER = 140.2616
MEAN_ANOMALY   = 220.1379

EPHEMERIS_TYPE = 0
CLASSIFICATION_TYPE = U
NORAD_CAT_ID   = 26474
ELEMENT_SET_NO = 999
REV_AT_EPOCH   = 38032
BSTAR          = .18155127E-3
MEAN_MOTION_DOT = .2775E-4
MEAN_MOTION_DDOT = 0

CCSDS_OMM_VERS = 2.0
CREATION_DATE  = 
ORIGINATOR     = 

OBJECT_NAME    = ENVISAT
OBJECT_ID      = 2002-009A
CENTER_NAME    = EARTH
REF_FRAME      = TEME
TIME_SYSTEM    = UTC
MEAN_ELEMENT_THEORY = SGP/SGP4

EPOCH          = 2025-12-16T09:24:31.618368
MEAN_MOTION    = 14.39000663
ECCENTRICITY   = .00011441
INCLINATION    = 98.3605
RA_OF_ASC_NODE = 301.0401
ARG_OF_PERICENTER = 83.9980
MEAN_ANOMALY   = 28.2908

EPHEMERIS_TYPE = 0
CLASSIFICATION_TYPE = U
NORAD_CAT_ID   = 27386
ELEMENT_SET_NO = 999
REV_AT_EPOCH   = 24719
BSTAR          = .52917679E-4
MEAN_MOTION_DOT = .121E-5
MEAN_MOTION_DDOT = 0

