SL-16 R/B               
1 25400U 98043G   25350.30661304  .00000064  00000+0  45856-4 0  9994
2 25400  98.8130 298.1447 0008798 255.1557 104.8648 14.26026556427101
SL-16 R/B               
1 25407U 98045B   25350.29640420 -.00000070  00000+0 -11385-4 0  9996
2 25407  71.0115 356.9470 0006725 171.5761 188.5476 14.16174536415295
ISS (ZARYA)             
1 25544U 98067A   25350.08808596  .00006404  00000+0  12171-3 0  9997
2 25544  51.6306 125.8981 0003173 255.6781 104.3856 15.49613604543373
CZ-4B R/B               
1 25732U 99025C   25350.13610812  .00000063  00000+0  51219-4 0  9991
2 25732  98.6765  31.3401 0036422 224.0122 199.9049 14.18244445376323
OKEAN-O                 
1 25860U 99039A   25350.16962990  .00000710  00000+0  10042-3 0  9995
2 25860  97.9601  45.8417 0000889 105.7182 254.4128 14.80167284422031
SL-16 R/B               
1 25861U 99039B   25350.16142023  .00000563  00000+0  78376-4 0  9994
2 25861  98.0124  44.3129 0015186 163.7146 196.4557 14.81591396424497
DELTA 2 R/B             
1 25876U 99041E   25350.18334148  .00001134  00000+0  22242-3 0  9991
2 25876  51.7616 274.6996 0504625 101.9181 263.8769 14.11410574351235
HELIOS 1B               
1 25977U 99064A   25350.30189755  .00001281  00000+0  14847-3 0  9999
2 25977  98.1758 245.0731 0001540  40.7734 319.3596 14.87297674672867
TERRA                   
1 25994U 99068A   25350.29780391  .00000478  00000+0  10683-3 0  9994
2 25994  97.9746  41.8517 0003593  87.5298 344.6664 14.60906024382905
SL-16 R/B               
1 26070U 00006B   25350.21950372 -.00000240  00000+0 -97566-4 0  9999
2 26070  71.0026 273.3410 0018559 303.9472  55.9886 14.15809621336740
TITAN 4B R/B            
1 26474U 00047B   25350.25648646  .00002775  00000+0  18155-3 0  9993
2 26474  67.9897 274.9779 0038689 140.2616 220.1379 15.08808381380322
ENVISAT                 
1 27386U 02009A   25350.39203262  .00000121  00000+0  52918-4 0  9991
2 27386  98.3605 301.0401 0001144  83.9980  28.2908 14.39000663247199
